{
  "norad_id": 65323,
  "name": "STARLINK-34899",
  "history": [
    {
      "epoch": "2026-03-28T11:25:25.876416Z",
      "apogee_km": 476.05002245860305,
      "perigee_km": 474.3390197110484,
      "latitude_deg": 3.9799473277698054e-05,
      "longitude_deg": 122.17091445534855,
      "height_km": 475.9122762013071,
      "semi_major_axis_km": 6853.331521084825,
      "eccentricity": 0.00012483,
      "inclination_deg": 53.1601,
      "raan_deg": 119.4246,
      "arg_perigee_deg": 77.8267,
      "mean_anomaly_deg": 282.2874,
      "mean_motion_rev_day": 15.30206882
    },
    {
      "epoch": "2026-03-29T01:31:54.574176Z",
      "apogee_km": 476.1703488276062,
      "perigee_km": 474.19933346609196,
      "latitude_deg": 2.6307001182948356e-05,
      "longitude_deg": -92.76056357420431,
      "height_km": 475.9378192930446,
      "semi_major_axis_km": 6853.321841146849,
      "eccentricity": 0.0001438,
      "inclination_deg": 53.1595,
      "raan_deg": 116.6921,
      "arg_perigee_deg": 81.5489,
      "mean_anomaly_deg": 278.5675,
      "mean_motion_rev_day": 15.30210124
    },
    {
      "epoch": "2026-03-30T01:02:42.555840Z",
      "apogee_km": 476.27869088702664,
      "perigee_km": 474.0774060934509,
      "latitude_deg": -5.301431426233644e-05,
      "longitude_deg": -90.9754038248979,
      "height_km": 476.04246068532166,
      "semi_major_axis_km": 6853.315048490238,
      "eccentricity": 0.0001606,
      "inclination_deg": 53.1593,
      "raan_deg": 112.1429,
      "arg_perigee_deg": 88.2749,
      "mean_anomaly_deg": 271.8435,
      "mean_motion_rev_day": 15.30212399
    },
    {
      "epoch": "2026-03-30T01:02:42.556704Z",
      "apogee_km": 476.27896501962823,
      "perigee_km": 474.0771319608484,
      "latitude_deg": 2.38214246724181e-05,
      "longitude_deg": -90.97535018745867,
      "height_km": 476.0424400672374,
      "semi_major_axis_km": 6853.315048490238,
      "eccentricity": 0.00016064,
      "inclination_deg": 53.1593,
      "raan_deg": 112.1429,
      "arg_perigee_deg": 88.2749,
      "mean_anomaly_deg": 271.8436,
      "mean_motion_rev_day": 15.30212399
    },
    {
      "epoch": "2026-03-30T07:18:55.314432Z",
      "apogee_km": 476.0034588624494,
      "perigee_km": 474.4107416935449,
      "latitude_deg": -2.9122476429060496e-05,
      "longitude_deg": 173.49884507419935,
      "height_km": 476.17637024905173,
      "semi_major_axis_km": 6853.344100277997,
      "eccentricity": 0.0001162,
      "inclination_deg": 53.1598,
      "raan_deg": 110.9278,
      "arg_perigee_deg": 95.1193,
      "mean_anomaly_deg": 264.994,
      "mean_motion_rev_day": 15.30202669
    }
  ]
}